[{"OBJECT_NAME":"TDRS 3","OBJECT_ID":"1988-091B","EPOCH":"2026-03-14T04:51:38.553120","MEAN_MOTION":1.00275639,"ECCENTRICITY":0.00424289,"INCLINATION":12.6751,"RA_OF_ASC_NODE":341.6235,"ARG_OF_PERICENTER":353.8077,"MEAN_ANOMALY":220.4028,"EPHEMERIS_TYPE":0,"CLASSIFICATION_TYPE":"U","NORAD_CAT_ID":19548,"ELEMENT_SET_NO":999,"REV_AT_EPOCH":12443,"BSTAR":0,"MEAN_MOTION_DOT":-2.91e-6,"MEAN_MOTION_DDOT":0},{"OBJECT_NAME":"HST","OBJECT_ID":"1990-037B","EPOCH":"2026-03-14T12:14:35.091168","MEAN_MOTION":15.29568851,"ECCENTRICITY":0.0001767,"INCLINATION":28.4725,"RA_OF_ASC_NODE":7.1142,"ARG_OF_PERICENTER":174.4342,"MEAN_ANOMALY":185.6273,"EPHEMERIS_TYPE":0,"CLASSIFICATION_TYPE":"U","NORAD_CAT_ID":20580,"ELEMENT_SET_NO":999,"REV_AT_EPOCH":77405,"BSTAR":0.00033489905,"MEAN_MOTION_DOT":0.00010115,"MEAN_MOTION_DDOT":0},{"OBJECT_NAME":"TDRS 5","OBJECT_ID":"1991-054B","EPOCH":"2026-03-14T13:14:38.571648","MEAN_MOTION":1.00270774,"ECCENTRICITY":0.00098439,"INCLINATION":14.083,"RA_OF_ASC_NODE":354.4745,"ARG_OF_PERICENTER":276.6361,"MEAN_ANOMALY":292.034,"EPHEMERIS_TYPE":0,"CLASSIFICATION_TYPE":"U","NORAD_CAT_ID":21639,"ELEMENT_SET_NO":999,"REV_AT_EPOCH":12676,"BSTAR":0,"MEAN_MOTION_DOT":9.1e-7,"MEAN_MOTION_DDOT":0},{"OBJECT_NAME":"TDRS 6","OBJECT_ID":"1993-003B","EPOCH":"2026-03-14T03:51:41.429088","MEAN_MOTION":1.00275205,"ECCENTRICITY":0.00051604,"INCLINATION":14.1813,"RA_OF_ASC_NODE":357.7641,"ARG_OF_PERICENTER":196.867,"MEAN_ANOMALY":349.2379,"EPHEMERIS_TYPE":0,"CLASSIFICATION_TYPE":"U","NORAD_CAT_ID":22314,"ELEMENT_SET_NO":999,"REV_AT_EPOCH":12145,"BSTAR":0,"MEAN_MOTION_DOT":-2.88e-6,"MEAN_MOTION_DDOT":0},{"OBJECT_NAME":"TDRS 7","OBJECT_ID":"1995-035B","EPOCH":"2026-03-14T15:09:59.509728","MEAN_MOTION":1.00273812,"ECCENTRICITY":0.00086574,"INCLINATION":13.4164,"RA_OF_ASC_NODE":348.8396,"ARG_OF_PERICENTER":48.9959,"MEAN_ANOMALY":91.0029,"EPHEMERIS_TYPE":0,"CLASSIFICATION_TYPE":"U","NORAD_CAT_ID":23613,"ELEMENT_SET_NO":999,"REV_AT_EPOCH":11230,"BSTAR":0,"MEAN_MOTION_DOT":-2.32e-6,"MEAN_MOTION_DDOT":0},{"OBJECT_NAME":"ISS (ZARYA)","OBJECT_ID":"1998-067A","EPOCH":"2026-03-14T10:01:48.497952","MEAN_MOTION":15.48274195,"ECCENTRICITY":0.00063896,"INCLINATION":51.6328,"RA_OF_ASC_NODE":48.9797,"ARG_OF_PERICENTER":189.638,"MEAN_ANOMALY":170.4486,"EPHEMERIS_TYPE":0,"CLASSIFICATION_TYPE":"U","NORAD_CAT_ID":25544,"ELEMENT_SET_NO":999,"REV_AT_EPOCH":55706,"BSTAR":0.00019399232,"MEAN_MOTION_DOT":9.99e-5,"MEAN_MOTION_DDOT":0},{"OBJECT_NAME":"TERRA","OBJECT_ID":"1999-068A","EPOCH":"2026-03-14T15:57:40.474656","MEAN_MOTION":14.61020819,"ECCENTRICITY":0.00029962,"INCLINATION":97.9583,"RA_OF_ASC_NODE":126.9095,"ARG_OF_PERICENTER":140.3198,"MEAN_ANOMALY":19.5937,"EPHEMERIS_TYPE":0,"CLASSIFICATION_TYPE":"U","NORAD_CAT_ID":25994,"ELEMENT_SET_NO":999,"REV_AT_EPOCH":39580,"BSTAR":0.0001160804,"MEAN_MOTION_DOT":5.25e-6,"MEAN_MOTION_DDOT":0},{"OBJECT_NAME":"TDRS 8","OBJECT_ID":"2000-034A","EPOCH":"2026-03-14T08:54:36.633312","MEAN_MOTION":1.00274618,"ECCENTRICITY":0.00061963,"INCLINATION":12.5354,"RA_OF_ASC_NODE":32.1132,"ARG_OF_PERICENTER":314.7828,"MEAN_ANOMALY":43.6033,"EPHEMERIS_TYPE":0,"CLASSIFICATION_TYPE":"U","NORAD_CAT_ID":26388,"ELEMENT_SET_NO":999,"REV_AT_EPOCH":9422,"BSTAR":0,"MEAN_MOTION_DOT":-1.9e-6,"MEAN_MOTION_DDOT":0},{"OBJECT_NAME":"TIMED","OBJECT_ID":"2001-055B","EPOCH":"2026-03-14T09:31:45.850944","MEAN_MOTION":14.95039433,"ECCENTRICITY":0.0002995,"INCLINATION":74.0665,"RA_OF_ASC_NODE":65.8442,"ARG_OF_PERICENTER":269.7066,"MEAN_ANOMALY":90.3775,"EPHEMERIS_TYPE":0,"CLASSIFICATION_TYPE":"U","NORAD_CAT_ID":26998,"ELEMENT_SET_NO":999,"REV_AT_EPOCH":31665,"BSTAR":0.00016101674,"MEAN_MOTION_DOT":1.724e-5,"MEAN_MOTION_DDOT":0},{"OBJECT_NAME":"AQUA","OBJECT_ID":"2002-022A","EPOCH":"2026-03-14T13:24:41.749056","MEAN_MOTION":14.61990486,"ECCENTRICITY":6.104e-5,"INCLINATION":98.4181,"RA_OF_ASC_NODE":41.0126,"ARG_OF_PERICENTER":99.437,"MEAN_ANOMALY":40.4397,"EPHEMERIS_TYPE":0,"CLASSIFICATION_TYPE":"U","NORAD_CAT_ID":27424,"ELEMENT_SET_NO":999,"REV_AT_EPOCH":26944,"BSTAR":0.00026064684,"MEAN_MOTION_DOT":1.257e-5,"MEAN_MOTION_DDOT":0},{"OBJECT_NAME":"SORCE","OBJECT_ID":"2003-004A","EPOCH":"2026-03-14T11:35:18.898368","MEAN_MOTION":15.03138495,"ECCENTRICITY":0.00156506,"INCLINATION":39.9905,"RA_OF_ASC_NODE":81.7782,"ARG_OF_PERICENTER":92.1257,"MEAN_ANOMALY":268.1329,"EPHEMERIS_TYPE":0,"CLASSIFICATION_TYPE":"U","NORAD_CAT_ID":27651,"ELEMENT_SET_NO":999,"REV_AT_EPOCH":25764,"BSTAR":0.00034822457,"MEAN_MOTION_DOT":4.649e-5,"MEAN_MOTION_DDOT":0},{"OBJECT_NAME":"AURA","OBJECT_ID":"2004-026A","EPOCH":"2026-03-14T13:25:02.468640","MEAN_MOTION":14.61162397,"ECCENTRICITY":0.00010856,"INCLINATION":98.3317,"RA_OF_ASC_NODE":29.2936,"ARG_OF_PERICENTER":88.5472,"MEAN_ANOMALY":271.5853,"EPHEMERIS_TYPE":0,"CLASSIFICATION_TYPE":"U","NORAD_CAT_ID":28376,"ELEMENT_SET_NO":999,"REV_AT_EPOCH":15239,"BSTAR":0.00025600366,"MEAN_MOTION_DOT":1.212e-5,"MEAN_MOTION_DDOT":0},{"OBJECT_NAME":"SWIFT","OBJECT_ID":"2004-047A","EPOCH":"2026-03-14T11:17:51.564480","MEAN_MOTION":15.59735122,"ECCENTRICITY":0.00045225,"INCLINATION":20.5522,"RA_OF_ASC_NODE":190.8071,"ARG_OF_PERICENTER":76.4873,"MEAN_ANOMALY":283.6075,"EPHEMERIS_TYPE":0,"CLASSIFICATION_TYPE":"U","NORAD_CAT_ID":28485,"ELEMENT_SET_NO":999,"REV_AT_EPOCH":17201,"BSTAR":0.00061998956,"MEAN_MOTION_DOT":0.0005292,"MEAN_MOTION_DDOT":0},{"OBJECT_NAME":"THEMIS A","OBJECT_ID":"2007-004A","EPOCH":"2026-03-14T04:27:25.680096","MEAN_MOTION":0.87846498,"ECCENTRICITY":0.84006215,"INCLINATION":6.9116,"RA_OF_ASC_NODE":119.0001,"ARG_OF_PERICENTER":179.6772,"MEAN_ANOMALY":182.3536,"EPHEMERIS_TYPE":0,"CLASSIFICATION_TYPE":"U","NORAD_CAT_ID":30580,"ELEMENT_SET_NO":999,"REV_AT_EPOCH":4044,"BSTAR":-0.032089533,"MEAN_MOTION_DOT":-1.4e-6,"MEAN_MOTION_DDOT":0},{"OBJECT_NAME":"THEMIS D","OBJECT_ID":"2007-004D","EPOCH":"2026-03-14T15:22:46.842816","MEAN_MOTION":0.87835522,"ECCENTRICITY":0.83540214,"INCLINATION":6.7361,"RA_OF_ASC_NODE":84.291,"ARG_OF_PERICENTER":217.2226,"MEAN_ANOMALY":313.1345,"EPHEMERIS_TYPE":0,"CLASSIFICATION_TYPE":"U","NORAD_CAT_ID":30797,"ELEMENT_SET_NO":999,"REV_AT_EPOCH":4024,"BSTAR":0,"MEAN_MOTION_DOT":-1.31e-6,"MEAN_MOTION_DDOT":0},{"OBJECT_NAME":"THEMIS E","OBJECT_ID":"2007-004E","EPOCH":"2026-03-14T12:36:03.621888","MEAN_MOTION":0.8783727,"ECCENTRICITY":0.83578963,"INCLINATION":4.2807,"RA_OF_ASC_NODE":99.426,"ARG_OF_PERICENTER":203.0425,"MEAN_ANOMALY":290.9871,"EPHEMERIS_TYPE":0,"CLASSIFICATION_TYPE":"U","NORAD_CAT_ID":30798,"ELEMENT_SET_NO":999,"REV_AT_EPOCH":6508,"BSTAR":0,"MEAN_MOTION_DOT":-1.45e-6,"MEAN_MOTION_DDOT":0},{"OBJECT_NAME":"FGRST (GLAST)","OBJECT_ID":"2008-029A","EPOCH":"2026-03-14T11:09:18.783072","MEAN_MOTION":15.23374198,"ECCENTRICITY":0.00077462,"INCLINATION":25.5812,"RA_OF_ASC_NODE":141.917,"ARG_OF_PERICENTER":289.5203,"MEAN_ANOMALY":70.4498,"EPHEMERIS_TYPE":0,"CLASSIFICATION_TYPE":"U","NORAD_CAT_ID":33053,"ELEMENT_SET_NO":999,"REV_AT_EPOCH":98137,"BSTAR":0.00017175128,"MEAN_MOTION_DOT":4.541e-5,"MEAN_MOTION_DDOT":0}]
